{"type":"FeatureCollection","name":"agrivision_zones_web","crs":{"type":"name","properties":{"name":"urn:ogc:def:crs:OGC:1.3:CRS84"}},"features":[{"type":"Feature","properties":{"fid":4,"DN":3,"id":3,"nom":"Zone 3","surface_ha":0.111,"vari":0.75,"risque":"faible","causes":[],"recommandations":["Maintenir les pratiques actuelles","Garder le sol couvert avec des résidus sains lorsque cela est possible","Éviter l’eau, l’engrais ou les traitements inutiles","Utiliser cette zone comme modèle pour comparer les autres parties du champ","Observer cette zone lors de la prochaine visite et du prochain vol drone"],"priorite":"faible","delai":"prochaine visite","confiance":"élevée","verification":"Surveillance simple et comparaison avec les autres zones"},"geometry":{"type":"MultiPolygon","coordinates":[[[[2.329865055425508,6.396173008682926],[2.329881316959725,6.396183882757303],[2.329914356329139,6.396156341427289],[2.329929714838074,6.396166309916721],[2.329955061404249,6.396144184995403],[2.329959564755935,6.396157756961444],[2.329959600679978,6.396130172611882],[2.329991229558507,6.396144232134209],[2.32998492015395,6.396128849001656],[2.330012526636647,6.396107179225591],[2.330004867992594,6.396086367896165],[2.32997550845979,6.396065528284296],[2.32997729272246,6.396084070941841],[2.329964195901888,6.396073200995239],[2.329955587710055,6.396087208075705],[2.329962391616796,6.396070033221116],[2.329941599053678,6.396066840698597],[2.329944802635613,6.396036999461541],[2.329928475732108,6.39607631986147],[2.329923523224622,6.396060486293752],[2.329912652755833,6.396075847034392],[2.329915836904227,6.396060928478536],[2.329897725148852,6.396082158422131],[2.329905441506488,6.396058653912798],[2.329886904152857,6.3960595341566],[2.32989320530813,6.39608124812426],[2.329879628116576,6.396092083303784],[2.329893655054112,6.396083057523347],[2.329895889648768,6.3961029573775],[2.329887765361334,6.396092546113792],[2.329882764558536,6.396113793146342],[2.329862892690287,6.396097940130715],[2.329852025752975,6.396110587655124],[2.329865055425508,6.396173008682926]]],[[[2.329775193466299,6.396497376113671],[2.329776013993036,6.396502548738566],[2.329811276788536,6.396503499118643],[2.329814920703971,6.396482702522028],[2.329822143736067,6.396490851596257],[2.329854293062257,6.396452456235545],[2.329845718435913,6.39644068777415],[2.329864225762677,6.396462869857604],[2.329855197266634,6.396452457414281],[2.329847471474223,6.396483197160616],[2.329835273550336,6.396476398210782],[2.329823497686441,6.396492662174187],[2.329873217150407,6.396501771054386],[2.329888174220982,6.396472849546803],[2.32986875267494,6.396458353726809],[2.329877824758796,6.396435303189457],[2.329860182171393,6.39644341984855],[2.3298751227481,6.396427160009475],[2.329861114060264,6.396422167512703],[2.329881025992863,6.396407270763606],[2.329849843903419,6.396397281644568],[2.329854341363389,6.396415375635713],[2.329842144029956,6.396408124483748],[2.329823574854343,6.396433423655385],[2.329811833157628,6.396423459877498],[2.329820849281836,6.396443368572562],[2.329804554163738,6.39645827003429],[2.329782858560665,6.396454171920177],[2.329781521105425,6.396439699674124],[2.329762504536538,6.396461380634236],[2.32973085443778,6.396463600383927],[2.329744853109722,6.39647628032547],[2.329740752965353,6.396500241748808],[2.32979097931617,6.396467296400358],[2.329775193466299,6.396497376113671]]],[[[2.329564510890097,6.396440321106406],[2.32956589548253,6.396418617159577],[2.32956857155939,6.396446657246728],[2.329597550881511,6.396412327598103],[2.329588530052627,6.396396036519363],[2.329611135158369,6.396396065998688],[2.329606631814765,6.396382494030459],[2.329618379987821,6.39638748358596],[2.32963423007685,6.396367155111858],[2.329605293186004,6.396368926189274],[2.329593117071103,6.396345395744959],[2.329589463130911,6.396373879780307],[2.329564618140811,6.396358020267665],[2.329549660467738,6.396387393966823],[2.329540634337038,6.396375172709109],[2.32953427308475,6.396399583384192],[2.329492640203903,6.396429826696267],[2.329539276852147,6.396376075345015],[2.329528004944432,6.396352546078733],[2.329532492374197,6.396378327512442],[2.329505808332009,6.396385980163644],[2.32951121764511,6.39639819670459],[2.329483596982493,6.396430719307317],[2.329513885468252,6.396432567625401],[2.329518428294946,6.396415842033017],[2.329526981697142,6.396443889785695],[2.329564510890097,6.396440321106406]]],[[[2.329521670800872,6.396356155442915],[2.329532546591079,6.396336724890868],[2.329518994137228,6.396328567558147],[2.329547968740534,6.396297855531097],[2.329538935539604,6.396291060702405],[2.329562912267855,6.396279334689531],[2.329550262840275,6.396272082941761],[2.329562961177944,6.396241801889259],[2.329553045577257,6.396218274392403],[2.329539914584564,6.396233632175496],[2.329549838434894,6.396250828838792],[2.329528576087676,6.396261201781773],[2.329521812237249,6.3962476268649],[2.32950822678357,6.39626479286698],[2.329500568748354,6.396243529329645],[2.32950596863093,6.396262981109068],[2.329494677278636,6.396254374521797],[2.329500531031055,6.396272470283708],[2.329472923341343,6.396295044433765],[2.329469240516231,6.396345686385398],[2.329512222035772,6.396321323474816],[2.329521670800872,6.396356155442915]]],[[[2.329617357345093,6.396478375092235],[2.329642672121591,6.396480669120096],[2.329649477223363,6.39646258986671],[2.329659401670409,6.396479334326165],[2.329653107003567,6.396452646129895],[2.329665321421835,6.396446783416011],[2.329624609835913,6.396463914048161],[2.329624637530281,6.396442660534644],[2.329652243455139,6.396421442983952],[2.329628770087086,6.396393827979787],[2.329658621200134,6.396384370639125],[2.329639192004664,6.396375753442866],[2.329655012042965,6.39637848729139],[2.329650978476657,6.396351349840388],[2.32961067952076,6.3963987786236],[2.3296052112797,6.39643178232488],[2.329594378506166,6.396418202102335],[2.329593898708502,6.396439455026146],[2.329590302515735,6.396423623224929],[2.329568115921487,6.396449369871569],[2.329591155453492,6.396462966013999],[2.329612873446159,6.396449880444345],[2.329617357345093,6.396478375092235]]],[[[2.330118004741592,6.396001048917705],[2.33013202225292,6.395999258369565],[2.330168744937038,6.395920622853346],[2.330148399769602,6.395921048548498],[2.330154308294803,6.395897089475127],[2.3301301504515806,6.395889447924331],[2.330142541286447,6.395906570411547],[2.330134685940609,6.395916056444345],[2.330128061667213,6.395916047813186],[2.330134816111101,6.39593685796302],[2.330114017075082,6.395938639675079],[2.33012665767304,6.395952674446106],[2.330103622267235,6.395935912911038],[2.330101324076773,6.395964850923506],[2.330084585123787,6.395973420973177],[2.330105844505827,6.395965309017012],[2.330106718093149,6.395988824723575],[2.3301191730977675,6.395991654831522],[2.330118004741592,6.396001048917705]]],[[[2.330129989322373,6.395889225265178],[2.330141232668808,6.39586994024402],[2.330122702386525,6.395865394067421],[2.330110923014461,6.395884371255025],[2.330122233211061,6.395878507350023],[2.330129989322373,6.395889225265178]]],[[[2.330269173948876,6.39622011224299],[2.330277338274338,6.396199773732985],[2.330257440488186,6.396203817640109],[2.330326677430286,6.396153713275138],[2.33027512014676,6.396167212209522],[2.330265649551307,6.396149111741831],[2.330252964795311,6.39616899215935],[2.330241669898673,6.396163098802234],[2.33024571821296,6.396178931189953],[2.330228998681168,6.396172578562066],[2.330219475693656,6.396194724113999],[2.330269173948876,6.39622011224299]]],[[[2.329453291404805,6.396441984857058],[2.329475482718881,6.396412620596717],[2.329469130303587,6.396430248234571],[2.329494018316395,6.396413096976381],[2.329470965823315,6.396409449282913],[2.329494037175667,6.396398626499453],[2.32947279839596,6.396390911343227],[2.329448819892454,6.396403993958286],[2.329463317218203,6.396380950506654],[2.329488640828792,6.396376461505479],[2.329474653953653,6.396354737509793],[2.329444796356804,6.396369169066009],[2.329447912151882,6.396406705993243],[2.329432093882714,6.39640261553118],[2.32944067439233,6.396409861974449],[2.329422567320644,6.396427474278511],[2.329453291404805,6.396441984857058]]],[[[2.33004228233487,6.396170978658538],[2.330063995594322,6.396161510686881],[2.330047279598989,6.396152444838613],[2.330058140055772,6.396144771536759],[2.330044628815811,6.396104960045278],[2.330009324824358,6.396135663855984],[2.330021080652126,6.396134774770199],[2.330013353109498,6.396166871128306],[2.330033236173718,6.396174132292134],[2.330052697756245,6.396157878338156],[2.33004228233487,6.396170978658538]]],[[[2.329985543033537,6.395997710878731],[2.329992375792638,6.395958378103018],[2.329999113154019,6.395992302125379],[2.330041617789127,6.395986931078719],[2.330019022120986,6.395979666380835],[2.330034396525988,6.395977425400407],[2.330020409046496,6.395956153620422],[2.330008643801105,6.395964277945978],[2.3300091206349,6.395945286031854],[2.329993741519877,6.395951144631287],[2.330000116875889,6.395915881088212],[2.329989230513139,6.395943451297488],[2.329989704403189,6.395926720395732],[2.32997477385701,6.39593529279858],[2.329991485133183,6.395947976268078],[2.329973376918456,6.395966493000436],[2.329985543033537,6.395997710878731]]],[[[2.330041577612792,6.396364972923548],[2.330057866833054,6.3963545934778],[2.330032553236464,6.396351395065919],[2.33003257561364,6.396334211372624],[2.330047487327815,6.396340109447952],[2.330033043026396,6.396322454697982],[2.330006364880874,6.396325585351735],[2.33001266074341,6.396351369140651],[2.329995965943896,6.396326024001962],[2.329980559726669,6.396352683912428],[2.329981485720863,6.396335953600258],[2.329967907345783,6.396347693186397],[2.329982811992378,6.396359017692966],[2.329998206431665,6.396341401831489],[2.330023484105548,6.396372184594685],[2.330026672964567,6.396353648418533],[2.330028009837919,6.396368572867147],[2.33003797669525,6.396352758743679],[2.330041577612792,6.396364972923548]]],[[[2.329450090100292,6.396123177445845],[2.329458239131584,6.39611459621455],[2.329462292135727,6.396126810986662],[2.329477695423513,6.396102412105637],[2.329479036406267,6.396114171137239],[2.329501651517525,6.396106513179116],[2.329480878995152,6.396087945756231],[2.329465500460676,6.396093352136348],[2.329464158299543,6.396082497509554],[2.329484953215625,6.396083881241502],[2.329479548620371,6.396068047081271],[2.329455563060637,6.396086556127273],[2.32944474621053,6.39606076643762],[2.329435687672005,6.396073416311026],[2.329454203219002,6.396089267572651],[2.329427961273858,6.396104608251883],[2.329450090100292,6.396123177445845]]],[[[2.330125147701124,6.396070697523413],[2.330161355296607,6.396040447084082],[2.330145561168957,6.396017816343179],[2.3301421701762406,6.39603010926005],[2.3301225010317,6.39602004731234],[2.330101683151235,6.396036299502487],[2.330117035773328,6.396050790011056],[2.330108434651191,6.396059370664963],[2.330128333020971,6.396054874560654],[2.330125147701124,6.396070697523413]]],[[[2.329691086531874,6.39645043463815],[2.329702837653299,6.396453163179842],[2.329714189108075,6.396415645116059],[2.329733173274104,6.396418835291175],[2.329736354485053,6.396406177749525],[2.329702008273694,6.39639573229312],[2.329687965416323,6.396416967532369],[2.329691086531874,6.39645043463815]]],[[[2.329667912658085,6.396539940651442],[2.329696389797085,6.396544047613445],[2.329705469549558,6.396515118448695],[2.329689635955315,6.396522785256935],[2.329679262350307,6.396503779196281],[2.329682395838392,6.396527750051193],[2.329676988876802,6.396513724701864],[2.329653011549891,6.396525902921499],[2.329665225380774,6.396520492410235],[2.329667912658085,6.396539940651442]]],[[[2.329541566827939,6.396353468172743],[2.329570951105589,6.396355315307749],[2.3295687465768,6.396312353130545],[2.329565561826965,6.396327723885306],[2.329537976530216,6.396333114347248],[2.329541566827939,6.396353468172743]]],[[[2.329762842937574,6.396548656292142],[2.329765580294449,6.396529667326948],[2.329733466306127,6.396540930535385],[2.329738017964437,6.396517421904113],[2.329719023778982,6.396521919169993],[2.329723974515441,6.396539109346477],[2.329701829164502,6.396533201829495],[2.329708593022896,6.396546776744739],[2.329762842937574,6.396548656292142]]],[[[2.329858701367883,6.3959162104889264],[2.329865426489926,6.395888121142524],[2.329849601752706,6.395889004921453],[2.329858701367883,6.3959162104889264]]],[[[2.3298589232863067,6.395916873969363],[2.329868516401616,6.395945554978478],[2.329881639131576,6.395936528019304],[2.3298589232863067,6.395916873969363]]],[[[2.330266845720121,6.395924820488585],[2.330267786418475,6.395896785112454],[2.330234776516504,6.395901716345102],[2.330236112218834,6.395917545198905],[2.330266845720121,6.395924820488585]]],[[[2.329589951178091,6.396346296022662],[2.329627505111483,6.396323734836433],[2.329616214344886,6.396314676049085],[2.329635685961418,6.396290734671789],[2.329589951178091,6.396346296022662]]],[[[2.32977867626825,6.396194149627526],[2.329797681633246,6.396181060511779],[2.329790034778808,6.396151205131287],[2.32977867626825,6.396194149627526]]],[[[2.330097839737103,6.39586310065518],[2.330101480690098,6.395844565066691],[2.330083388380104,6.395850872337142],[2.330085691280611,6.395818316704926],[2.330067570120472,6.3958467818958],[2.330097839737103,6.39586310065518]]],[[[2.329749869240577,6.396443276032418],[2.329720958857139,6.396424698006826],[2.329719101548428,6.396462228450106],[2.329749869240577,6.396443276032418]]],[[[2.330109938654501,6.396293161695936],[2.330110884074517,6.396261508701743],[2.330088708110544,6.396279115730159],[2.330082407534038,6.396256949561482],[2.330072888071547,6.396276381895048],[2.330109938654501,6.396293161695936]]],[[[2.329452156706993,6.396271954985143],[2.3294631840017908,6.396260442319142],[2.329446758005211,6.39625159880056],[2.329452156706993,6.396271954985143]]],[[[2.3294652100184963,6.396258327126425],[2.329471623613828,6.39625163123389],[2.329475677208395,6.396263393803576],[2.329487466631334,6.39623672919325],[2.329464854460818,6.396242126138071],[2.3294652100184963,6.396258327126425]]],[[[2.330139238219534,6.396012833868954],[2.330161856263022,6.396002914867902],[2.330152847195739,6.395977579748237],[2.330139238219534,6.396012833868954]]],[[[2.329884811594138,6.396624785440519],[2.329898412950454,6.396595409962575],[2.329857718440573,6.396599426742077],[2.329884811594138,6.396624785440519]]],[[[2.329608889218972,6.396037918146195],[2.329621051187805,6.396072301447853],[2.329640951917155,6.396065996553216],[2.329635111123501,6.396037952339174],[2.329619287560405,6.396037931705641],[2.329632393209911,6.396042018623842],[2.329624240647282,6.39605331307288],[2.329608889218972,6.396037918146195]]],[[[2.329447148811532,6.39629862844007],[2.329464344601065,6.396286441383943],[2.329471111986475,6.396297303087026],[2.329472041533014,6.396277859563032],[2.329431794435539,6.396285494520029],[2.329447148811532,6.39629862844007]]],[[[2.3294223657171,6.39623528766935],[2.329404729614901,6.396238430086456],[2.329407876646219,6.396252000286611],[2.329434092077274,6.396257008717398],[2.3294223657171,6.39623528766935]]],[[[2.329564881080095,6.396503177830938],[2.329577109054016,6.396486914463958],[2.329594728664853,6.396496433709282],[2.329564463746481,6.396476497299176],[2.329553589721827,6.396494571244387],[2.329564881080095,6.396503177830938]]],[[[2.330100524675081,6.395884357705847],[2.330113210605925,6.395863572886811],[2.330104643635547,6.395845925797755],[2.330102802846684,6.395870794577242],[2.330090589624236,6.395875752898663],[2.330088352078135,6.395858114056844],[2.330079740949734,6.395874382152574],[2.330100524675081,6.395884357705847]]],[[[2.329570226162155,6.396564684434035],[2.329586528950651,6.396543904349525],[2.329577947258106,6.3965375623131],[2.329567975079681,6.396557446247359],[2.329570263287973,6.396536195682297],[2.329554893579931,6.396534819027583],[2.329570226162155,6.396564684434035]]],[[[2.330204917179609,6.396264796648393],[2.330219407404745,6.396247179601058],[2.330209043202857,6.396220938309851],[2.330199080474432,6.396233587020225],[2.330209920915085,6.396241288599229],[2.330190461099654,6.396256185951882],[2.330206741483061,6.396252589537795],[2.330204917179609,6.396264796648393]]],[[[2.330094895146869,6.396041264892889],[2.330079083358252,6.396032200224199],[2.330081367419472,6.396014115071241],[2.330068681483076,6.396034899888848],[2.330094895146869,6.396041264892889]]],[[[2.329603565504848,6.396306972100049],[2.3296043096377512,6.3962934094718555],[2.329590908415605,6.396305598984549],[2.329603565504848,6.396306972100049]]],[[[2.329604744618782,6.396285481471406],[2.329604954808646,6.396281650533461],[2.329625302934706,6.396278963849267],[2.329600900621671,6.396270340166898],[2.329604744618782,6.396285481471406]]],[[[2.329627711545401,6.39635150153442],[2.329633329997248,6.396363988515827],[2.329653699927238,6.396344570341308],[2.329627711545401,6.39635150153442]]],[[[2.329838070085541,6.396064896938844],[2.329853874213012,6.39607984024636],[2.3298591388400185,6.396074588153032],[2.329845772898243,6.396051793086837],[2.329838070085541,6.396064896938844]]],[[[2.3299803892870234,6.395907144842756],[2.329969385736111,6.395906796973207],[2.329982922877115,6.39592671155768],[2.329995140812529,6.395918135619388],[2.32997978113127,6.395909071537372],[2.3299803892870234,6.395907144842756]]],[[[2.330186921995195,6.396196490513193],[2.330204536900435,6.396209627357649],[2.330214051647112,6.396193812640745],[2.33019279990984,6.396196045968363],[2.3301901114354,6.396177502132702],[2.330186921995195,6.396196490513193]]],[[[2.329712866383747,6.396389867809405],[2.329735482094283,6.39638175763955],[2.329730540195497,6.396357784426793],[2.329712866383747,6.396389867809405]]],[[[2.329905930820949,6.396724297676116],[2.329916350970256,6.396707579740801],[2.329899177557665,6.396702583118919],[2.329905930820949,6.396724297676116]]],[[[2.3297540225784448,6.396162174047369],[2.329769663094554,6.396171979919991],[2.329774665669969,6.396149376281829],[2.3297540225784448,6.396162174047369]]],[[[2.330171509904446,6.396227672455653],[2.330178314395356,6.396210045395271],[2.33018825239734,6.396216389189117],[2.330185115353395,6.396195131549567],[2.330159320223682,6.396214542679063],[2.330171509904446,6.396227672455653]]],[[[2.330002049971831,6.396167308600591],[2.330015610674899,6.396169135086595],[2.330016554333072,6.396138838700375],[2.329999823617367,6.396141077912113],[2.330002049971831,6.396167308600591]]],[[[2.330185059424302,6.396238090784363],[2.330166972988138,6.396239876031628],[2.330184124017486,6.396262056337202],[2.330185059424302,6.396238090784363]]],[[[2.329963524519008,6.396588711787065],[2.329960399851921,6.396557957895847],[2.329944122991545,6.396558841086241],[2.329963524519008,6.396588711787065]]],[[]],[[[2.329244958399489,6.3963756914065],[2.329260333407016,6.396372998248461],[2.329263976753293,6.39635265386026],[2.329244958399489,6.3963756914065]]],[[[2.329733131070421,6.396798233713277],[2.32974443775663,6.396795083033864],[2.329738601666446,6.396763421200972],[2.329733131070421,6.396798233713277]]],[[[2.32954274858993,6.396140482016288],[2.329530584857511,6.396107455320487],[2.329528292526278,6.396131871302638],[2.32954274858993,6.396140482016288]]],[[]],[[[2.330169655616383,6.395915649804199],[2.33018322573318,6.39591024104554],[2.330176913969957,6.395896666724809],[2.330161086288413,6.395899811525728],[2.330169655616383,6.395915649804199]]],[[[2.330145781891435,6.396195532502889],[2.330152084825302,6.396215889861171],[2.330170633959928,6.396205965558947],[2.330145781891435,6.396195532502889]]],[[[2.329711603164077,6.396318418057774],[2.329728337420732,6.3963134656416],[2.329717053722094,6.396298980427183],[2.329711603164077,6.396318418057774]]],[[[2.329205570686829,6.396417694905075],[2.329214628647938,6.396405497239494],[2.329198828659341,6.396387388496771],[2.329205570686829,6.396417694905075]]],[[[2.330135853310719,6.396181953468834],[2.330146690216726,6.396192368263787],[2.33015621556217,6.396168413903641],[2.330135853310719,6.396181953468834]]],[[[2.329839588989663,6.396634222753921],[2.329852718807568,6.396619769368413],[2.32984369737812,6.396603930495489],[2.329839588989663,6.396634222753921]]],[[[2.330174012971109,6.396041367982556],[2.33019661335438,6.396045015054314],[2.330197984377453,6.396033711759505],[2.330174012971109,6.396041367982556]]],[[]],[[[2.330229312441179,6.396278846732816],[2.330253717122943,6.396285661576583],[2.330255546723415,6.396269384643414],[2.330229312441179,6.396278846732816]]],[[]],[[]],[[[2.329858416475184,6.396757698772413],[2.329870624419637,6.396756810280994],[2.329863867623261,6.396737808938066],[2.329858416475184,6.396757698772413]]],[[[2.329809583250205,6.396415317286686],[2.329812324138588,6.396393615106288],[2.329796965625966,6.396383646612965],[2.329809583250205,6.396415317286686]]],[[]],[[]],[[]],[[]],[[[2.329527857024416,6.39646604888291],[2.329545500205997,6.39645748003345],[2.329521996786861,6.396452927347583],[2.329527857024416,6.39646604888291]]],[[[2.329895766895177,6.396544307550969],[2.329898058035004,6.396520795970821],[2.329885386213533,6.396530727922906],[2.329895766895177,6.396544307550969]]],[[[2.330172923906731,6.396183358380739],[2.330185154797894,6.396164833983932],[2.330164805499541,6.396168425096019],[2.330172923906731,6.396183358380739]]],[[[2.329503902008408,6.396114203568313],[2.329526501797704,6.396118302871775],[2.329520639795317,6.396106537943908],[2.329503902008408,6.396114203568313]]],[[]],[[[2.329900932366125,6.39674373589802],[2.329884222246767,6.396730148018633],[2.329886011807274,6.396744620854005],[2.329900932366125,6.39674373589802]]],[[]],[[[2.329742028182791,6.396909487298441],[2.329761029452762,6.396899563604208],[2.329738433751128,6.396892298890476],[2.329742028182791,6.396909487298441]]],[[[2.330064391035131,6.396552214788802],[2.330066676867657,6.396532773029201],[2.330055370188616,6.396535923716542],[2.330064391035131,6.396552214788802]]],[[[2.330107845362321,6.396164733250475],[2.330126854840453,6.396148478704285],[2.330097468802834,6.39614798820946],[2.330107845362321,6.396164733250475]]],[[[2.329826309851709,6.396416243499222],[2.329837621241327,6.396409475197292],[2.329827241152749,6.396395443365992],[2.329826309851709,6.396416243499222]]],[[]],[[]],[[[2.329766255671897,6.396358283195957],[2.329770358169688,6.396332512962318],[2.32975678744897,6.396338373910804],[2.329766255671897,6.396358283195957]]],[[]],[[]],[[]],[[[2.329523771014254,6.396479157445751],[2.32954049172315,6.396484605691819],[2.329529209794963,6.396468763866314],[2.329523771014254,6.396479157445751]]],[[]],[[[2.329008712828533,6.396565760618867],[2.329024987918305,6.396566234065356],[2.329022746870015,6.396551308437015],[2.329008712828533,6.396565760618867]]],[[[2.330239753762705,6.396245849499486],[2.330232087454697,6.396230916804567],[2.330224836161417,6.396244473454516],[2.330239753762705,6.396245849499486]]],[[]],[[]],[[[2.329869056929924,6.396571857127833],[2.32987945822785,6.39656960967096],[2.329875824327562,6.396582718826754],[2.329886249186613,6.39656238327226],[2.329869056929924,6.396571857127833]]],[[[2.3296968908017,6.396506515402037],[2.329695117743833,6.396479380898721],[2.32968289330872,6.396492931054401],[2.3296968908017,6.396506515402037]]],[[[2.329707780729561,6.396476231987895],[2.329700112078381,6.396463108096117],[2.329694670944279,6.396475310487419],[2.329707780729561,6.396476231987895]]],[[[2.329703448241398,6.396331521317372],[2.329698498096083,6.396313878938411],[2.329683563409778,6.396325616747953],[2.329703448241398,6.396331521317372]]],[[]],[[[2.329696446147919,6.396153796332205],[2.329711389665619,6.396135275485226],[2.329696472070518,6.396133899425399],[2.329696446147919,6.396153796332205]]],[[]],[[]],[[[2.329764084705725,6.396289545479327],[2.329775400216713,6.396279611761501],[2.329759583125905,6.396274616904766],[2.329764084705725,6.396289545479327]]],[[]],[[[2.329764662874979,6.396192774748306],[2.329766035675433,6.396180114848445],[2.329751116311418,6.396180095397352],[2.329764662874979,6.396192774748306]]],[[[2.329209566609997,6.396126933494292],[2.329224500120315,6.396116100103725],[2.329211853060439,6.396107039538967],[2.329209566609997,6.396126933494292]]],[[[2.329948602013,6.395896821414809],[2.329951782036416,6.395885068275593],[2.329938666964784,6.395888216604932],[2.329948602013,6.395896821414809]]],[[[2.330018347269538,6.396497890395048],[2.329999373109348,6.396487012788344],[2.329988055241485,6.39649875532079],[2.330018347269538,6.396497890395048]]],[[[2.329904114419126,6.396383334090001],[2.329926262122908,6.396387432788092],[2.329908652521017,6.396370226112309],[2.329904114419126,6.396383334090001]]],[[]],[[[2.32989783469605,6.395998048766815],[2.329910040855523,6.395998516879895],[2.329905989607927,6.395984945502896],[2.32989783469605,6.395998048766815]]],[[[2.329867129469286,6.395969067737768],[2.32988071667005,6.395950545116599],[2.329863531502731,6.395954592544983],[2.329867129469286,6.395969067737768]]],[[]],[[[2.329534260011775,6.396062691998519],[2.32953587250565,6.3960576077200315],[2.329524775302341,6.39605544437794],[2.329534260011775,6.396062691998519]]],[[]],[[]],[[]],[[[2.329838814663953,6.396187444979034],[2.329840192174786,6.396171167459258],[2.329828877256541,6.396180648976495],[2.329838814663953,6.396187444979034]]],[[]],[[]],[[]],[[]],[[[2.330124982323657,6.395850474331223],[2.330136293108079,6.395844158223336],[2.330120933425966,6.395835094145482],[2.330124982323657,6.395850474331223]]],[[]],[[]],[[]],[[]],[[]],[[]],[[]],[[[2.330167321517958,6.395972172168323],[2.330182244998169,6.395969026189379],[2.330174126593426,6.395954092905006],[2.330167321517958,6.395972172168323]]],[[]],[[]],[[]],[[]],[[]],[[]],[[]],[[]],[[]],[[[2.329644362684121,6.396571111961492],[2.329654770464022,6.396563890282688],[2.329643482638226,6.396552570483344],[2.329644362684121,6.396571111961492]]],[[]],[[]],[[]],[[]],[[]],[[]],[[]],[[]],[[]],[[]],[[]]]}},{"type":"Feature","properties":{"fid":1,"DN":1,"id":1,"nom":"Zone 1","surface_ha":1.092,"vari":0.35,"risque":"modere","causes":["Manque d’eau possible — à confirmer en touchant le sol et en observant les feuilles"],"recommandations":["Contrôle manuel sous 24 heures : prendre de la terre à 5 à 10 cm de profondeur et vérifier si elle est très sèche","Laisser sur le sol une couche de pailles ou de résidus de culture sains pour ralentir l’évaporation","Ne pas utiliser comme paillage des feuilles malades ou fortement infestées","Appliquer du compost bien décomposé si le sol en a besoin ; il améliore progressivement la capacité du sol à garder l’eau","Si le manque d’eau est confirmé, irriguer seulement la partie sèche, tôt le matin ou en fin d’après-midi","Contrôler de nouveau au sol sous 72 heures ; refaire un vol drone sous 7 jours si une intervention a été réalisée"],"priorite":"haute","delai":"24 h","confiance":"moyenne","verification":"Toucher le sol à plusieurs endroits et observer si les feuilles sont molles ou flétries"},"geometry":{"type":"MultiPolygon","coordinates":[[[[2.329013013532638,6.396388050403254],[2.328985157193979,6.396254614120529],[2.328983339862997,6.397647849551652],[2.33045945689941,6.397649774577774],[2.33046196873897,6.395719774355123],[2.328985857239328,6.395717849914393],[2.328985161322476,6.396251448704013],[2.329118135310221,6.396208662954926],[2.329061393969167,6.396037203914926],[2.329734573521291,6.396038082024528],[2.329733183047525,6.396064307997303],[2.32974628752069,6.396069299317626],[2.329741807150302,6.396038091455438],[2.32985211999406,6.396038235264231],[2.329847798057882,6.3958853849446],[2.329900260111445,6.395871435027248],[2.329907061660599,6.39585606898295],[2.329957659947397,6.395884623733094],[2.329978949948618,6.395852997254132],[2.329943252761566,6.395838480227255],[2.329984861424732,6.395826777171089],[2.329975787003541,6.395851636522325],[2.330004268820071,6.395852125843969],[2.330024208989277,6.39581552336802],[2.330041782660443,6.39586031438898],[2.330056736755619,6.395833653885171],[2.330047235554945,6.395839067942873],[2.330030994635722,6.395812366788125],[2.330106081778146,6.395783071421529],[2.330126007807666,6.395757321799875],[2.3301214433874025,6.395767936289754],[2.330120567869892,6.395768619792903],[2.330121428345243,6.395767971270067],[2.33011240354711,6.39578895830082],[2.330128627985486,6.395828321122634],[2.330144914242529,6.39582020268433],[2.330149832609508,6.395862263994063],[2.330160293352233,6.395814344079758],[2.330129108346645,6.395806615992983],[2.330139972326918,6.395796229473561],[2.330123254574961,6.395788520236153],[2.3301308790548316,6.39576084846176],[2.330181661633922,6.39572257466096],[2.330181183041483,6.39574292318353],[2.330195204666364,6.395737967215529],[2.330188396651849,6.395758307492047],[2.330208746522278,6.395754264174776],[2.330203758099216,6.395766014960353],[2.330232204593827,6.395793636417912],[2.330228570709813,6.3958067455781],[2.3302121211651756,6.3958067241473735],[2.330210025711961,6.395813504466821],[2.330230367343437,6.395815791983673],[2.330185608690264,6.395816185875304],[2.330219497477727,6.395830700529961],[2.330180620854645,6.395827484458029],[2.330225818071349,6.395837491813008],[2.330179701345199,6.395839240544403],[2.330219934274206,6.395842458383469],[2.330224436453991,6.395856934752763],[2.330202280527389,6.395859166904282],[2.330199081083197,6.395885842727473],[2.330191873357995,6.395865936394182],[2.330182804832526,6.395886273725237],[2.330195911661644,6.395889456224202],[2.330185943053217,6.395906626959892],[2.330199984109274,6.395886748310457],[2.330207655121638,6.395898063385586],[2.330194053216025,6.395927891078744],[2.330184567320912,6.395921547874545],[2.330185413242949,6.395966317097759],[2.330202636673909,6.395932876497334],[2.330153644249288,6.396059881776279],[2.330150433614097,6.396095149445508],[2.330164896165098,6.396098785915469],[2.330168551247769,6.396069397467254],[2.330190246250996,6.396073947766248],[2.330182587011119,6.39605358864122],[2.330158170566625,6.396055817844701],[2.3301744809684,6.396029159104814],[2.330192109996901,6.396031443089741],[2.330182628809731,6.396021482265536],[2.330211691660091,6.395922939822992],[2.330234264960413,6.395947388206722],[2.330216637111764,6.395944199818556],[2.330215717602647,6.395955955905005],[2.330258662563338,6.395959629478503],[2.330250034955835,6.395988559246893],[2.330269919194985,6.395994915996279],[2.330261382237728,6.395954206582502],[2.330245558675172,6.395954185968511],[2.330263663937462,6.395937930237908],[2.330213503599165,6.395920228964132],[2.330227162603284,6.395846537629601],[2.330249725305941,6.395879125657155],[2.330260136595386,6.395869190748645],[2.330290864796918,6.395880535859021],[2.330269538906018,6.3959397467043],[2.330281281191243,6.395949258269206],[2.330262291739019,6.395950137938081],[2.33026814787153,6.39596642488398],[2.330284425890803,6.39596463727632],[2.330268966723291,6.396031995421954],[2.330324102549568,6.396047894359747],[2.330259454336292,6.396046001330536],[2.330248545614343,6.396090755240562],[2.330277003311858,6.396109784850265],[2.330292388315694,6.396099404217716],[2.330300961182313,6.396112529279741],[2.330300074048314,6.396099414229812],[2.330313160282591,6.39611842381339],[2.330334317626965,6.396100948941849],[2.330333048059161,6.396122067345986],[2.330345251280147,6.396124796461516],[2.330331688810385,6.396124326591668],[2.330324421040632,6.396150544913109],[2.330335277373728,6.39614603702237],[2.330357804780492,6.396205757196167],[2.330347842644342,6.396217953707357],[2.330343816104316,6.396185389828102],[2.330332930929211,6.396212055640724],[2.330302206827808,6.396197545113467],[2.330309413972131,6.396217903648372],[2.330297660496772,6.396216983930673],[2.330293555671944,6.396244562981414],[2.33031389732098,6.396246850496739],[2.330256880660154,6.396286570104537],[2.330189542177371,6.396267489835552],[2.330113979899649,6.396314420513857],[2.330086275074234,6.396411608105232],[2.330068183921139,6.396417010967996],[2.3300668134822,6.396427862059431],[2.330083550095656,6.396421100821896],[2.330065836848753,6.396483481783193],[2.330104239503068,6.396850720845988],[2.330091120873513,6.396856582391338],[2.33010602553677,6.396867906895934],[2.330161273795328,6.397144727265383],[2.330202334486819,6.397206732613936],[2.330194183681071,6.397216670463522],[2.330203687851454,6.397208995393607],[2.330214518301711,6.397224384416141],[2.330202738307661,6.397243813804416],[2.330218099208533,6.397251973478959],[2.330205433260997,6.39725738341287],[2.330223513845411,6.397260120192608],[2.330222632602369,6.397242483118555],[2.330298000737508,6.397344779252115],[2.330213428623142,6.397366827011293],[2.330231551604436,6.397337005214321],[2.330202160787782,6.397340132338036],[2.330200783870134,6.397355957656463],[2.330180911946808,6.397340104647859],[2.330174115680793,6.397351400871652],[2.330202574028823,6.397369978289087],[2.330158721213146,6.397369016735185],[2.330154634620102,6.397382577505963],[2.330146071161576,6.397362217201157],[2.330170485902122,6.39736134461219],[2.330173691253343,6.397330146767299],[2.330151533496049,6.397333735517205],[2.330140653580744,6.397356331498976],[2.330138440193844,6.397352474740158],[2.330135659836945,6.397372152103399],[2.33010354403307,6.39738477193728],[2.330122515282541,6.397397910555672],[2.330103070140422,6.397401502838445],[2.33012838555547,6.397403344644828],[2.330130219878597,6.397383450094067],[2.330137425260944,6.397405165238813],[2.330120677425637,6.397420518321025],[2.330109391927305,6.39740738971948],[2.330108461220429,6.397427737650967],[2.330087222976902,6.397419570312597],[2.330083124013956,6.397442627333794],[2.330091732229072,6.397428620253928],[2.330108896834095,6.397440399908608],[2.330061348269224,6.397500028758607],[2.329961784266156,6.397577677924518],[2.329940530703869,6.397581267842781],[2.329949140103453,6.397566356361173],[2.329931940743303,6.397581256644194],[2.329929694954315,6.397569948636574],[2.329925145057507,6.397592100661261],[2.329919284799514,6.397578979128633],[2.329910226241153,6.397591629008089],[2.329930105232917,6.397602055598068],[2.329900689069311,6.397624627406826],[2.329897544376496,6.397609248398484],[2.329872177698809,6.397646748190114],[2.329681586371092,6.397495916002348],[2.329683447819111,6.397455220144552],[2.329661280626268,6.397466044110804],[2.3296588888888334,6.397460308280366],[2.329644552813044,6.397466022294197],[2.329301770980346,6.397186113574229],[2.329343432235213,6.397134164571965],[2.329299061311639,6.397183849022833],[2.329333932182081,6.397138674208167],[2.329296351642955,6.397181584471426],[2.329299986742594,6.397167570917273],[2.329284157839377,6.397171620091132],[2.329235382629887,6.397131762567518],[2.329251687220058,6.397109625890269],[2.329231317832895,6.397128591841164],[2.329180736579781,6.397086923143799],[2.329185724451447,6.397075624574892],[2.329179381451116,6.397086016969018],[2.328998281158142,6.396937910171648],[2.329013013532638,6.396388050403254]]],[[[2.330201595312154,6.395806710434126],[2.330170249596615,6.395806669596433],[2.330177470271699,6.395816627475389],[2.330201595312154,6.395806710434126]]],[[[2.330137553098579,6.3973509290038555],[2.330132083056588,6.39734139762338],[2.330123929891648,6.397353144281221],[2.33013209130088,6.397335066789124],[2.330113086486299,6.397347703710646],[2.330080092390285,6.397340425457281],[2.330093191009826,6.397349938796692],[2.330085031365767,6.397366659680667],[2.330094514928595,6.397374811698777],[2.330110808893259,6.397360814635426],[2.330111237440299,6.397378903322427],[2.330137553098579,6.3973509290038555]]],[[[2.329349804226557,6.396407934621585],[2.32935120415412,6.396374473414074],[2.32936293051368,6.396396194463644],[2.329389143004041,6.396403463909388],[2.329387394718885,6.396357336906052],[2.3293707190094595,6.396342328890048],[2.32937248478216,6.396350082205135],[2.329354381837007,6.39636452909007],[2.329359831229868,6.396345995869545],[2.32933817041638,6.396315217796452],[2.329340820543545,6.396363154788737],[2.329322799537236,6.396314745540319],[2.329300206816195,6.39630521979855],[2.329306945901672,6.396337787218071],[2.329288465723054,6.396294803807639],[2.329269024747685,6.396295230646063],[2.3292852768385,6.396313339976513],[2.329269832856264,6.396368940814462],[2.329290173322326,6.396372132775098],[2.329295165309788,6.396357668787139],[2.329305966829339,6.396395215741567],[2.329309597204831,6.39638481980541],[2.329326749966905,6.396405643528945],[2.329341238455547,6.396389383117184],[2.329349804226557,6.396407934621585]]],[[[2.3293703381898623,6.3963406567527885],[2.329391526707048,6.39630895655762],[2.329349458230095,6.396326537601358],[2.329367539953524,6.396328370002625],[2.3293703381898623,6.3963406567527885]]],[[[2.329950357359171,6.39697894599249],[2.329982919941307,6.396970396576992],[2.329982526147004,6.396925627946142],[2.330005601637921,6.396911639724131],[2.329984361650022,6.396904828991065],[2.329962190364168,6.396918818390729],[2.329926064565015,6.396886212668845],[2.329948672638849,6.396883981123386],[2.329945525001794,6.396870863127414],[2.329918862731012,6.396861784307776],[2.329905284339543,6.396873523890426],[2.329924708846306,6.396885758698374],[2.32990027940321,6.396897936338823],[2.329920156013291,6.396910171736385],[2.329910589996448,6.396965328056779],[2.32993004395765,6.396954952743124],[2.329950357359171,6.39697894599249]]],[[[2.330025087397677,6.396876845474423],[2.330011992913291,6.396864166717383],[2.330047727861058,6.396849742789912],[2.330047304025999,6.396828036483183],[2.330018827455613,6.396823477336286],[2.33001840421061,6.396801318827195],[2.329987645927191,6.396813036020411],[2.329984951569784,6.396799014208982],[2.330008469734131,6.396792261814578],[2.329994017766773,6.396780485694405],[2.329960964222005,6.396818879883705],[2.329970463675679,6.39681482243711],[2.329966359414446,6.396841949279832],[2.329956424349292,6.396833344468674],[2.32994962514155,6.396846901702097],[2.329969488793667,6.396869085551375],[2.329972678837489,6.396849644971556],[2.329983538722062,6.396842423875578],[2.329991659488114,6.396855548353565],[2.330001629302216,6.396837473219979],[2.329994367980765,6.396858717306359],[2.330025087397677,6.396876845474423]]],[[[2.3301758313971193,6.39726062288248],[2.330176499262521,6.3972568935051],[2.330165194334046,6.397258687585824],[2.330153404915667,6.397285352211862],[2.330150733517847,6.39725369450528],[2.33013536437407,6.397251865663115],[2.330147995579476,6.397273135675526],[2.330115430034866,6.397283946111902],[2.330120429666943,6.397263603483123],[2.330106394453862,6.39727896010063],[2.330126722597528,6.397291648283745],[2.330117216657827,6.397300679959272],[2.330133495308705,6.397298440158494],[2.330118571788929,6.397301586131806],[2.33012081169274,6.39731741616349],[2.33013257049218,6.397314266065758],[2.330133456442991,6.39732828552003],[2.330143435096269,6.397303427347732],[2.330156533716278,6.397312940685565],[2.330157012317626,6.397292592164505],[2.330181890934436,6.397282676114776],[2.330159252222628,6.397308422196144],[2.330171921116043,6.397300751251308],[2.330161950119204,6.39731973079246],[2.330185888023947,6.397337850116358],[2.330192691944214,6.397320675260472],[2.330179567414532,6.397331058831345],[2.330175985332024,6.397304374173403],[2.330194061796054,6.397310276371499],[2.330206743054068,6.39729310917421],[2.3302162130754,6.397311661846627],[2.33021442998199,6.397292214784536],[2.330185064487463,6.397275897202066],[2.330203152726861,6.397272755350664],[2.330198659960444,6.397251043741467],[2.3301758313971193,6.39726062288248]]],[[[2.329818559835612,6.397159655449143],[2.329824904003176,6.397148358641063],[2.329835290585082,6.397157416246933],[2.329831635469404,6.397186804688752],[2.329856074943004,6.397166939612092],[2.329852967955622,6.397122619648469],[2.329867449382666,6.397111785651813],[2.329833123741245,6.397085513114435],[2.329853490161346,6.39706880814929],[2.329847638157256,6.397049355782437],[2.329822731858569,6.397080525330455],[2.329833994956137,6.397110837629035],[2.329815926752206,6.397098604585488],[2.329803237239572,6.397122102606287],[2.32983263275664,6.397115357884926],[2.329818559835612,6.397159655449143]]],[[[2.329707319566383,6.397177146322932],[2.329744841153844,6.397179456267412],[2.329726805946283,6.397141899885632],[2.329755696335011,6.397175852796719],[2.329759378557423,6.397125663044745],[2.329742188635739,6.397133328084002],[2.329714638649279,6.397111586406225],[2.329690622992645,6.397153157781131],[2.329707319566383,6.397177146322932]]],[[[2.329369355435112,6.396322945933036],[2.329355810058218,6.3963093621676],[2.329375726714266,6.396290847819923],[2.329355377997993,6.396293986696448],[2.32935857866905,6.396266406478973],[2.329328731096288,6.396273150588047],[2.32934951658761,6.396281769564516],[2.329327364769069,6.396280836259247],[2.32933503871326,6.396289890333881],[2.329304766154282,6.3962758325417],[2.329369355435112,6.396322945933036]]],[[[2.329915913467302,6.396002142160066],[2.329934877596805,6.396020707209683],[2.329942144205472,6.395995393300405],[2.32995615464986,6.395999029186553],[2.329925903287961,6.39596869214255],[2.329944902162792,6.395960577246979],[2.329941319505841,6.395934344790711],[2.329921863818766,6.395946076716609],[2.329934063498937,6.395951519055974],[2.329926357156525,6.395967336124457],[2.329908730488109,6.395963243320961],[2.329924963748372,6.395995823111119],[2.329915913467302,6.396002142160066]]],[[[2.329777296071237,6.396559528012833],[2.32981481466936,6.396564098959743],[2.329818010606636,6.396540136356753],[2.3298035333197,6.396547804936815],[2.329822098966491,6.396525218981142],[2.32981034312986,6.396526108061396],[2.329812634273384,6.396502596482009],[2.329803110672071,6.396525194225871],[2.329794989326378,6.396512521948216],[2.329780485529946,6.396540539636961],[2.329763305055022,6.396540969440347],[2.329777296071237,6.396559528012833]]],[[[2.330059640350233,6.396728567853316],[2.330042901370517,6.396737137898711],[2.330058699045439,6.396757055429275],[2.330060559277226,6.396717263970462],[2.330082749395165,6.396688804086744],[2.330041182473333,6.396668400769452],[2.330059640350233,6.396728567853316]]],[[[2.329887058274756,6.3969824811016],[2.329892522384216,6.396952642813766],[2.329857281942432,6.396934508743773],[2.329841882177014,6.39695619442011],[2.329887058274756,6.3969824811016]]],[[[2.329709168039158,6.396105427177585],[2.329758030975881,6.396077906488867],[2.329735431185419,6.39607380719557],[2.329725059942413,6.396052992326552],[2.329709168039158,6.396105427177585]]],[[[2.330189227247902,6.396162126070533],[2.3302158928802696,6.396120991640539],[2.330184768043901,6.396114638920396],[2.330189302014822,6.396104696356415],[2.330179342820841,6.396114631851813],[2.330175237402428,6.396142663103611],[2.330193788300042,6.396131382192777],[2.330189227247902,6.396162126070533]]],[[[2.329834175813639,6.396972011484731],[2.329826919195951,6.396989637948316],[2.329845831513716,6.397047996817444],[2.329858972535936,6.397024951586977],[2.329846316606087,6.397022674071036],[2.329834175813639,6.396972011484731]]],[[[2.329326184090581,6.396492917999929],[2.329299109249284,6.396453541001583],[2.329306772583787,6.396470734719736],[2.329288672580131,6.396482920589734],[2.329278749324936,6.39646527171961],[2.329273296979764,6.396486065950663],[2.329326184090581,6.396492917999929]]],[[[2.329920360428283,6.397447389402028],[2.329888636629964,6.397506134457825],[2.329907651469971,6.397485810104667],[2.329933404852932,6.39749850536864],[2.329920360428283,6.397447389402028]]],[[[2.3296538356131427,6.396962184238114],[2.329664637325595,6.396971790419312],[2.329672817598609,6.39693924245814],[2.329638009234265,6.396936483845458],[2.329641189862754,6.396924278507637],[2.329599107785552,6.396952260222323],[2.32966015047627,6.396945556783706],[2.3296538356131427,6.396962184238114]]],[[[2.330014582953576,6.395916804347023],[2.330043521586294,6.395913676636343],[2.330047605222374,6.395902376877092],[2.3300224382260586,6.395902344080454],[2.330014582953576,6.395916804347023]]],[[[2.3300226875997265,6.395901885024486],[2.330034948140646,6.395901003773419],[2.330028085774909,6.395891947870518],[2.3300226875997265,6.395901885024486]]],[[[2.3300288676635903,6.395890508541865],[2.330052583640655,6.395898313535508],[2.330042685686175,6.395861219972206],[2.330024602796438,6.395860292001042],[2.330038148771068,6.395873423547235],[2.3300288676635903,6.395890508541865]]],[[[2.32922941169263,6.396856815267459],[2.329255651324941,6.396843283412935],[2.32924209178837,6.396840552500611],[2.329252501937332,6.39683152202169],[2.329217219076829,6.396845946481652],[2.329187402720748,6.396828723853162],[2.329180605262876,6.396840924467202],[2.32922941169263,6.396856815267459]]],[[[2.330021637406555,6.397442999393538],[2.3300302491571,6.397426279100262],[2.330037011855955,6.39744075841772],[2.330062785853854,6.397437626589979],[2.330054693347974,6.39740279639522],[2.330041586482523,6.397399613888906],[2.330021637406555,6.397442999393538]]],[[[2.3294431063221555,6.3964968920377565],[2.32943514778882,6.396487633710104],[2.329423832267049,6.396497567419197],[2.329424719967601,6.396510230265782],[2.3294431063221555,6.3964968920377565]]],[[[2.32945699046596,6.3964868199010825],[2.329464542682008,6.396481341208749],[2.329477169716725,6.396505776650211],[2.329504318244159,6.396488628340435],[2.329469063114401,6.396481799308261],[2.329478587907483,6.396458297167196],[2.32945699046596,6.3964868199010825]]],[[[2.329585666696325,6.396858636635426],[2.329606883103519,6.396883535480479],[2.329620902407395,6.396880388341812],[2.32961730797997,6.396863199933424],[2.329596516567514,6.39685910298911],[2.329626372423068,6.396846028034103],[2.329624091875,6.396861399967956],[2.329634508500495,6.396847395254149],[2.32961508694956,6.396832899424048],[2.329620045345023,6.39684421096997],[2.329585666696325,6.396858636635426]]],[[[2.3296935147593234,6.397051251806992],[2.329702092315288,6.397025199238002],[2.329685817208177,6.397024725811379],[2.3296935147593234,6.397051251806992]]],[[[2.3296937788017726,6.397052161705312],[2.329698419516823,6.39706815375067],[2.329724670934843,6.397045577823866],[2.329713380151795,6.397036519037071],[2.3296937788017726,6.397052161705312]]],[[[2.329407273063426,6.396368215713056],[2.329385552122872,6.396383562285853],[2.329414495497629,6.396376816994606],[2.3294099910919006,6.396353375288963],[2.329404123674027,6.396356454322468],[2.329405509451434,6.39633384597189],[2.32938336824027,6.396324773025681],[2.329398710237908,6.396347403197459],[2.329379725488386,6.39634466521287],[2.329407273063426,6.396368215713056]]],[[[2.329968726154764,6.396413263719954],[2.329937132009916,6.396372524250439],[2.329948472844713,6.396343145823447],[2.329923540675483,6.396394212288955],[2.329940280233985,6.396385190043929],[2.32992986833859,6.396395577146473],[2.329968726154764,6.396413263719954]]],[[[2.329726659230178,6.397254498286148],[2.329743863886534,6.397235528187579],[2.329756960139695,6.397246850344325],[2.329739835027147,6.397204773117679],[2.329726659230178,6.397254498286148]]],[[[2.329445411751571,6.397284429066576],[2.329472971754358,6.397298483317852],[2.329482961047451,6.39726548551864],[2.3294700982117065,6.397261535989325],[2.329445411751571,6.397284429066576]]],[[[2.329795428947559,6.397216150688238],[2.329805858538279,6.397192197518192],[2.329771949647514,6.397193057711029],[2.329769657906596,6.39721702149151],[2.329795428947559,6.397216150688238]]],[[[2.3298020613212884,6.396577227789793],[2.329807581621937,6.396563637326658],[2.329793555847361,6.396571758698193],[2.3298020613212884,6.396577227789793]]],[[[2.329809702280348,6.396582140991029],[2.32981117310936,6.396583086746511],[2.329783560111399,6.396609730734513],[2.32981853989453,6.396600819092358],[2.329810251821113,6.396596199438149],[2.3298179564111,6.39658173898044],[2.329809702280348,6.396582140991029]]],[[[2.329819005888418,6.396601078830721],[2.329803001689383,6.396608851675401],[2.329811578673451,6.396618811327904],[2.329830581698252,6.396607531022434],[2.329819005888418,6.396601078830721]]],[[[2.329700614041275,6.396077831629553],[2.329712405804347,6.396049358202495],[2.32970470534504,6.396060653242434],[2.32969252451802,6.396040740419911],[2.329678486973926,6.39605790583832],[2.329700614041275,6.396077831629553]]],[[[2.33005346402607,6.39661098696695],[2.330033165943316,6.396575236458607],[2.330026350252357,6.396601455362349],[2.33005346402607,6.39661098696695]]],[[[2.330075815014839,6.396111783733917],[2.330076269535446,6.396097958168685],[2.330064060954036,6.396111316213633],[2.330075815014839,6.396111783733917]]],[[[2.330076399901148,6.396093992716973],[2.330077179373057,6.39607028281346],[2.330063650658546,6.396079209249653],[2.330076399901148,6.396093992716973]]],[[[2.330021425416898,6.396564368279901],[2.330027322769343,6.396549001056542],[2.330036798661857,6.396563031706176],[2.330049017790483,6.396553551363393],[2.330034556994862,6.396548558281633],[2.330048135963263,6.396536366491765],[2.330022811757763,6.396541307722615],[2.330021425416898,6.396564368279901]]],[[[2.3300551589192335,6.396063967557941],[2.330078140882214,6.396061592206132],[2.330062787672227,6.396047553898953],[2.330043789384282,6.396055216596253],[2.3300551589192335,6.396063967557941]]],[[[2.329956965609045,6.396417770423433],[2.329943882916152,6.396396047616911],[2.329927128633026,6.396416374923125],[2.329956965609045,6.396417770423433]]],[[[2.329631475778883,6.396746097787138],[2.329608817622031,6.396786766523854],[2.329632338146006,6.396778205337471],[2.329631475778883,6.396746097787138]]],[[[2.329574295257441,6.39725836940554],[2.329567527859184,6.39724750770267],[2.329586065844533,6.397246175272557],[2.3295634636484,6.39724388477625],[2.329569353951533,6.397233943989549],[2.329538128206742,6.397257417824433],[2.329574295257441,6.39725836940554]]],[[[2.330155223095283,6.395888951008692],[2.330176025072829,6.395884908282355],[2.330167463987009,6.395862739169339],[2.330147568568659,6.395864974263634],[2.330155223095283,6.395888951008692]]],[[[2.329963778944282,6.396393360330332],[2.329984574465217,6.396394291841054],[2.330000891365907,6.396362658882114],[2.329963778944282,6.396393360330332]]],[[[2.329724689789508,6.397031107346608],[2.329737370464931,6.397014392364046],[2.329714320299344,6.397008935868928],[2.329707515779752,6.397026562919863],[2.329724689789508,6.397031107346608]]],[[[2.329173399927741,6.396819209313612],[2.329193740410318,6.396822401279806],[2.329191057868074,6.396799335419098],[2.329173399927741,6.396819209313612]]],[[[2.329409572480152,6.396685213129789],[2.329397363948294,6.396686553812746],[2.32940050803361,6.396702385024932],[2.329424450007467,6.396717338962181],[2.329409572480152,6.396685213129789]]],[[[2.329383868086931,6.396288145221415],[2.329383905810885,6.396259204268069],[2.329369439137169,6.396258733193026],[2.329383868086931,6.396288145221415]]],[[[2.329639125114797,6.39712098419614],[2.329654523715237,6.397100202932237],[2.329632370681091,6.397100174041212],[2.329639125114797,6.39712098419614]]],[[]],[[[2.329993229716878,6.39738553255717],[2.329995526750053,6.397357498952935],[2.329974264361827,6.397367871910072],[2.329993229716878,6.39738553255717]]],[[[2.330013186606446,6.395947552346806],[2.330034894556944,6.395942154197529],[2.330032658779229,6.395923158748294],[2.330016835218371,6.395923138127364],[2.330013186606446,6.395947552346806]]],[[[2.329585842899241,6.396723428116103],[2.32961523073396,6.396722562036319],[2.329594455237994,6.39670625562748],[2.329585842899241,6.396723428116103]]],[[[2.329195584199247,6.396795271497584],[2.329222282417262,6.396776766008379],[2.329201485116605,6.39677719107247],[2.329195584199247,6.396795271497584]]],[[[2.330081358593583,6.39740961419859],[2.330097633125592,6.397410539816434],[2.330090883970395,6.39738565984345],[2.330103558166835,6.397373919078634],[2.330083196452112,6.397387006433546],[2.330081358593583,6.39740961419859]]],[[[2.329948021698837,6.396689532895757],[2.329947612002878,6.396656973730665],[2.329934059533396,6.396648816407419],[2.329945787101959,6.396669633041804],[2.329934467461571,6.396682732179761],[2.329948021698837,6.396689532895757]]],[[[2.329095737973069,6.396742685628769],[2.329071334470841,6.39673496632476],[2.329079451672214,6.396750804028763],[2.329068141445906,6.39675666790738],[2.329095737973069,6.396742685628769]]],[[[2.329834704224492,6.39656638590569],[2.329861376492328,6.396567777286642],[2.329856429874292,6.396547421693948],[2.329834704224492,6.39656638590569]]],[[[2.329670245222605,6.396831614746657],[2.32965851648435,6.396811702511715],[2.329641318322834,6.396825698382377],[2.329670245222605,6.396831614746657]]],[[[2.329240957040755,6.397017362447899],[2.329227827195977,6.397031815814705],[2.329237748099672,6.397051273495859],[2.329240957040755,6.397017362447899]]],[[[2.329954765954375,6.3960238985538],[2.329988243277853,6.396007210665587],[2.329967448361369,6.396005826954175],[2.329954765954375,6.3960238985538]]],[[[2.329631713386886,6.396910700053746],[2.329625408700787,6.39689169929811],[2.329612291833838,6.396896204223333],[2.329609108258436,6.396910670572964],[2.329631713386886,6.396910700053746]]],[[[2.329634100715618,6.397160319319472],[2.329626893000393,6.397140412979653],[2.329608810657526,6.397139032786889],[2.329634100715618,6.397160319319472]]],[[[2.329709895477624,6.3968894910044884],[2.329728483370395,6.396895451338078],[2.329722627837297,6.396878712184873],[2.329711249478927,6.396884934024339],[2.329709895477624,6.3968894910044884]]],[[[2.329837026587593,6.396518907597148],[2.329820279365033,6.39653380846974],[2.329828389519307,6.396555072593303],[2.329837026587593,6.396518907597148]]],[[[2.32992483513957,6.396441695313459],[2.329951485610394,6.396459818179583],[2.329947442604709,6.396439915968423],[2.32992483513957,6.396441695313459]]],[[[2.329047268064935,6.396815427069199],[2.329054032497867,6.396828549789134],[2.329083432131371,6.39681863969331],[2.329047268064935,6.396815427069199]]],[[[2.330201882570667,6.396164855778529],[2.330214086969019,6.396166680492255],[2.330224079718632,6.396130969455081],[2.330201882570667,6.396164855778529]]],[[[2.329953937528408,6.39643503103909],[2.329949696637131,6.396444893141746],[2.329962805244891,6.396446719040582],[2.329977741696264,6.396433624615337],[2.329982250350647,6.396443126759317],[2.329980461965415,6.396427749519041],[2.329953937528408,6.39643503103909]]],[[[2.330023065016692,6.397454847132364],[2.330036972394797,6.397471055980935],[2.330038354618857,6.397451160841648],[2.330023065016692,6.397454847132364]]],[[[2.330073611003225,6.397457085437364],[2.330095326085756,6.397446260863132],[2.33007634717926,6.397439000875367],[2.330073611003225,6.397457085437364]]],[[[2.330153578352232,6.395763236364308],[2.330174796515802,6.395786778577692],[2.330169805148097,6.395800790375198],[2.330189261413341,6.395788606236207],[2.330153578352232,6.395763236364308]]],[[[2.3301558533025553,6.397240277201554],[2.330159326417559,6.397251444687385],[2.330176525171061,6.397236996597183],[2.3301558533025553,6.397240277201554]]],[[[2.330051574565026,6.397367520480046],[2.330060607791088,6.397374315302127],[2.330072392505124,6.397351268298552],[2.330051574565026,6.397367520480046]]],[[[2.330279056030824,6.396269415270784],[2.330289937089662,6.396245914877143],[2.330271854773777,6.396244534710754],[2.330279056030824,6.396269415270784]]],[[[2.329890483061117,6.397129903808685],[2.329911294515658,6.397118625859827],[2.329886445356932,6.397105931775401],[2.329890483061117,6.397129903808685]]],[[[2.329721274652472,6.397223289245153],[2.329732591365045,6.397212451126032],[2.329704574541317,6.397202013918082],[2.329721274652472,6.397223289245153]]],[[[2.330244577358007,6.396013423315583],[2.330245746509774,6.3960109628431265],[2.330249574612921,6.395994889492655],[2.330221986983021,6.3960020888039],[2.330244577358007,6.396013423315583]]],[[[2.329653466009018,6.396524094701383],[2.329633558190566,6.396535826023537],[2.329649390607432,6.396529063621987],[2.329657059847268,6.396541735312039],[2.329653466009018,6.396524094701383]]],[[[2.329168429159533,6.396817394014118],[2.329150341523611,6.396820083627808],[2.329149864654012,6.396839075537097],[2.329168429159533,6.396817394014118]]],[[[2.329642237259339,6.396814394501295],[2.329641353089206,6.396799018440156],[2.329623699289603,6.396815726935095],[2.329642237259339,6.396814394501295]]],[[[2.329919732438621,6.396541173368337],[2.329913886325806,6.396517198977797],[2.329904818364697,6.396537084098651],[2.329919732438621,6.396541173368337]]],[[[2.329297430367443,6.397047733748791],[2.32931689259581,6.397031027626723],[2.32931601727924,6.397008868530479],[2.329297430367443,6.397047733748791]]],[[[2.329277655873614,6.396610427504339],[2.329302985981298,6.396600964287494],[2.329288535216177,6.396588283744882],[2.329277655873614,6.396610427504339]]],[[[2.32999811161771,6.396414206426153],[2.329984982398275,6.396428207614017],[2.330011221991695,6.396414675716338],[2.329989550533437,6.396392037310507],[2.32999811161771,6.396414206426153]]],[[]],[[[2.329396411407393,6.396723633229116],[2.329392366654222,6.396705087622985],[2.329372924484015,6.396706418868496],[2.329396411407393,6.396723633229116]]],[[[2.32964841413691,6.39671131644414],[2.32966089543384,6.39672081277453],[2.329658212281214,6.396698199116451],[2.32964841413691,6.39671131644414]]],[[[2.329898516057243,6.397210406450004],[2.329883125120261,6.397225309090278],[2.329905720249673,6.397233026001726],[2.329898516057243,6.397210406450004]]],[[[2.329255677857007,6.396822934306089],[2.329277865662706,6.396796283271868],[2.329267456104502,6.396804861549061],[2.329264313202247,6.396788125931734],[2.329255677857007,6.396822934306089]]],[[[2.329713194960692,6.396831670753492],[2.329730829315277,6.396829884935061],[2.329717288629444,6.396812683557686],[2.329713194960692,6.396831670753492]]],[[[2.330103252700282,6.397261320080695],[2.330111865622433,6.397243695380448],[2.330090167627461,6.397241406085498],[2.330103252700282,6.397261320080695]]],[[[2.32971137574789,6.396492968193519],[2.329729922543298,6.396484852718933],[2.329729949644257,6.396464051407396],[2.32971137574789,6.396492968193519]]],[[[2.330013523110873,6.397424900688497],[2.330027542428518,6.397421753540084],[2.330024405978137,6.397400043698032],[2.330013523110873,6.397424900688497]]],[[[2.330097463586589,6.395804765947438],[2.330114223139867,6.395780368810158],[2.330092054263691,6.395792549411576],[2.330097463586589,6.395804765947438]]],[[[2.329582959470168,6.397201403107418],[2.329562598341005,6.397214038238726],[2.329580669488511,6.397224010278932],[2.329582959470168,6.397201403107418]]],[[]],[[[2.33006747590981,6.39730785038234],[2.330081928481544,6.397319174299489],[2.33008468114569,6.397288428068832],[2.330078321669472,6.397311482143979],[2.33006747590981,6.39730785038234]]],[[[2.329232459796915,6.396599515656376],[2.329224347898931,6.396579608133074],[2.329220705138183,6.396599500318107],[2.329232459796915,6.396599515656376]]],[[]],[[[2.329911728046184,6.396785804868988],[2.329932530061618,6.396781762156632],[2.32993432374654,6.396793069574901],[2.329937053442458,6.396779959240149],[2.329911728046184,6.396785804868988]]],[[]],[[[2.330039622211464,6.397172153115513],[2.330028352032928,6.397147267249394],[2.330015689620355,6.397149963964075],[2.330039622211464,6.397172153115513]]],[[[2.329855537741851,6.396885216321399],[2.329846067740469,6.396866663644207],[2.329838366091594,6.396878863089679],[2.329855537741851,6.396885216321399]]],[[]],[[[2.329201664366382,6.396639721551538],[2.329211632432808,6.396623003042712],[2.329196255059031,6.396627505007951],[2.329201664366382,6.396639721551538]]],[[]],[[[2.330051903075669,6.39607376750209],[2.330046909934631,6.39608913590499],[2.330061381905619,6.396085537138373],[2.330051903075669,6.39607376750209]]],[[[2.330060838643377,6.395808335849205],[2.330073933693725,6.39582056240037],[2.330085255664729,6.395805654446677],[2.330060838643377,6.395808335849205]]],[[[2.329818763416409,6.396656353560284],[2.329799773349841,6.396657685411669],[2.329818748689144,6.396667658621028],[2.329818763416409,6.396656353560284]]],[[[2.329655238041267,6.396898973450037],[2.329654804205643,6.39688495458573],[2.329638970598849,6.396892621391033],[2.329655238041267,6.396898973450037]]],[[[2.329578763757763,6.3969517814858],[2.329589613630886,6.396952247839833],[2.329585570637616,6.396932345627263],[2.329578763757763,6.3969517814858]]],[[[2.33022098329256,6.396078509844667],[2.330256290211862,6.396045545005225],[2.33024365313997,6.396028797021947],[2.33022098329256,6.396078509844667]]],[[[2.32976965392765,6.39652605501259],[2.329785475738925,6.396527432250349],[2.329776010458355,6.396505261953139],[2.32976965392765,6.39652605501259]]],[[]],[[]],[[[2.329988550924154,6.396465292928847],[2.330003960089508,6.396436372006314],[2.329993570572935,6.396429575417059],[2.329988550924154,6.396465292928847]]],[[[2.330043470947308,6.395952566048193],[2.3300614046744936,6.3959352815025206],[2.330057525552591,6.395922286746699],[2.330043470947308,6.395952566048193]]],[[[2.329552248737264,6.396482812212871],[2.329572613371555,6.396467463864157],[2.329547740090947,6.396473310065925],[2.329552248737264,6.396482812212871]]],[[]],[[[2.329932483182545,6.396470646287991],[2.329953715495789,6.396483335653164],[2.329944249619296,6.396461617560782],[2.329932483182545,6.396470646287991]]],[[[2.329435328736178,6.396348807573824],[2.329433993648367,6.396332526518258],[2.329421789250841,6.396330701785904],[2.329435328736178,6.396348807573824]]],[[[2.329272999839289,6.396713975950206],[2.329269365333011,6.396727537302296],[2.329282937837369,6.396720319761283],[2.329272999839289,6.396713975950206]]],[[[2.330109930598779,6.39734091654941],[2.330124855886401,6.397336413969139],[2.330115842093382,6.397314696467449],[2.330109930598779,6.39734091654941]]],[[[2.329669264416336,6.396890399881125],[2.329675609761522,6.39687819866994],[2.32966113717684,6.396882249625388],[2.329669264416336,6.396890399881125]]],[[[2.329982743088646,6.396411925379589],[2.32995786981338,6.396417771601981],[2.329967351591207,6.396427280228042],[2.329982743088646,6.396411925379589]]],[[[2.329118226917314,6.396831798996736],[2.329106900176951,6.396850324542137],[2.32912725717209,6.396840854844905],[2.329118226917314,6.396831798996736]]],[[]],[[[2.329412226149042,6.396730436907574],[2.329423974327342,6.396735426468084],[2.329431228006566,6.396720061023045],[2.329412226149042,6.396730436907574]]],[[[2.329267598077732,6.397042720587627],[2.32926581325157,6.397024630133003],[2.329248622738162,6.397032747357738],[2.329267598077732,6.397042720587627]]],[[]],[[[2.329735978215878,6.397041974942828],[2.329728718058493,6.397062314619013],[2.329746812772452,6.397054198556575],[2.329735978215878,6.397041974942828]]],[[]],[[[2.329690276364793,6.397072212960197],[2.329685326804711,6.397054118378503],[2.329678074305455,6.397068579422413],[2.329690276364793,6.397072212960197]]],[[[2.329860973869652,6.39652979169268],[2.3298650657624,6.396512161101962],[2.329849225690559,6.396524802142165],[2.329860973869652,6.39652979169268]]],[[[2.329409501155458,6.396393089793632],[2.329426230111807,6.396392207209445],[2.32943440449246,6.396364181275946],[2.329409501155458,6.396393089793632]]],[[]],[[[2.329282848222693,6.396789054522774],[2.329304104701193,6.396783203616762],[2.32930684502465,6.396761953644179],[2.329282848222693,6.396789054522774]]],[[[2.330374619661571,6.39613885301678],[2.330390002310516,6.396130281191176],[2.330383235494816,6.396118967295834],[2.330374619661571,6.39613885301678]]],[[]],[[]],[[]],[[]],[[]],[[[2.329298464869765,6.396947798203649],[2.329281273769861,6.396956367632198],[2.329296187259172,6.396960909123036],[2.329298464869765,6.396947798203649]]],[[]],[[]],[[]],[[[2.329126549929885,6.396689818075409],[2.329127025620229,6.396671730570837],[2.329116610755179,6.396684378666294],[2.329126549929885,6.396689818075409]]],[[]],[[]],[[]],[[]],[[[2.330056174546686,6.395918215157094],[2.33005574717507,6.395899222064426],[2.330045332348512,6.395911870183093],[2.330056174546686,6.395918215157094]]]]}},{"type":"Feature","properties":{"fid":24,"DN":2,"id":2,"nom":"Zone 2","surface_ha":0.967,"vari":0.55,"risque":"modere","causes":["Manque d’éléments nutritifs possible — notamment l’azote — à confirmer au sol"],"recommandations":["Observer si les feuilles jaunissent et comparer avec les plantes de la Zone 3","Faire si possible une analyse du sol ou demander l’avis d’un technicien agricole","Appliquer du compost bien décomposé si l’état du sol le justifie","À la prochaine rotation, introduire une légumineuse adaptée comme le niébé, le soja, l’arachide ou le mucuna","Utiliser des plantes de couverture pour protéger le sol ; les graminées protègent le sol mais ne fixent pas l’azote","Ne pas épandre de l’engrais sur toute la parcelle avant confirmation","Si un apport est confirmé, l’appliquer de manière ciblée et fractionnée selon la culture et son stade"],"priorite":"moyenne","delai":"72 h","confiance":"faible à moyenne","verification":"Observer la couleur des feuilles et vérifier le sol avant tout apport"},"geometry":{"type":"MultiPolygon","coordinates":[[[[2.3295870899339852,6.396049602652773],[2.329593969859562,6.396037898690972],[2.329543786560069,6.3960378332475],[2.329544223930003,6.396049138897477],[2.329533388218799,6.396037819686527],[2.329545115758845,6.396058636327398],[2.329531543865156,6.396065401675312],[2.329528867200862,6.396037813790387],[2.329513030084175,6.396048193809062],[2.329514399943493,6.396037794922471],[2.329061393969167,6.396037203914926],[2.329118135310221,6.396208662954926],[2.328985161322476,6.396251448704013],[2.329013013532638,6.396388050403254],[2.32900872108564,6.396559429785881],[2.32901822879696,6.396549041524128],[2.329027705249787,6.396562619987131],[2.329008261905912,6.396564855624032],[2.328998281158142,6.396937910171648],[2.32909221822743,6.397014907318048],[2.329143383075379,6.396955735486331],[2.329094927894301,6.397017171870359],[2.329117527127639,6.397021723397822],[2.329110734972904,6.39702985418919],[2.329179381451116,6.397086016969018],[2.329185724451447,6.397075624574892],[2.329180736579781,6.397086923143799],[2.329231317832895,6.397128591841164],[2.329251687220058,6.397109625890269],[2.329235382629887,6.397131762567518],[2.329284157839377,6.397171620091132],[2.329299986742594,6.397167570917273],[2.329296351642955,6.397181584471426],[2.329333932182081,6.397138674208167],[2.329299964927602,6.397184302405051],[2.329343432235213,6.397134164571965],[2.329301319467159,6.397185660781934],[2.329644552813044,6.397466022294197],[2.329660384670405,6.39745971209793],[2.329653168111507,6.397446588794173],[2.329683447819111,6.397455220144552],[2.329675265767259,6.397489124711667],[2.329872177698809,6.397646748190114],[2.329897544376496,6.397609248398484],[2.329900689069311,6.397624627406826],[2.329930105232917,6.397602055598068],[2.329910226241153,6.397591629008089],[2.329919284799514,6.397578979128633],[2.329925145057507,6.397592100661261],[2.329929694954315,6.397569948636574],[2.329931940743303,6.397581256644194],[2.329949140103453,6.397566356361173],[2.329940530703869,6.397581267842781],[2.329961784266156,6.397577677924518],[2.330061348269224,6.397500028758607],[2.330108896834095,6.397440399908608],[2.330091732229072,6.397428620253928],[2.330083124013956,6.397442627333794],[2.330087222976902,6.397419570312597],[2.330108461220429,6.397427737650967],[2.330109391927305,6.39740738971948],[2.330120677425637,6.397420518321025],[2.330137425260944,6.397405165238813],[2.330130219878597,6.397383450094067],[2.33012838555547,6.397403344644828],[2.330103070140422,6.397401502838445],[2.330122515282541,6.397397910555672],[2.33010354403307,6.39738477193728],[2.330135659836945,6.397372152103399],[2.330138440193844,6.397352474740158],[2.330140653580744,6.397356331498976],[2.330151533496049,6.397333735517205],[2.330173691253343,6.397330146767299],[2.330170485902122,6.39736134461219],[2.330146071161576,6.397362217201157],[2.330154634620102,6.397382577505963],[2.330158721213146,6.397369016735185],[2.330202574028823,6.397369978289087],[2.330174115680793,6.397351400871652],[2.330180911946808,6.397340104647859],[2.330200783870134,6.397355957656463],[2.330202160787782,6.397340132338036],[2.330231551604436,6.397337005214321],[2.330213428623142,6.397366827011293],[2.330298000737508,6.397344779252115],[2.330222632602369,6.397242483118555],[2.330223513845411,6.397260120192608],[2.330205433260997,6.39725738341287],[2.330218099208533,6.397251973478959],[2.330202738307661,6.397243813804416],[2.330214518301711,6.397224384416141],[2.330203687851454,6.397208995393607],[2.330194183681071,6.397216670463522],[2.330202334486819,6.397206732613936],[2.330161273795328,6.397144727265383],[2.330105501593245,6.396923075005919],[2.33010602553677,6.396867906895934],[2.330091120873513,6.396856582391338],[2.330104239503068,6.396850720845988],[2.330073879294776,6.396556749186305],[2.330055369010874,6.396536828121451],[2.330066676867657,6.396532773029201],[2.330072078540729,6.396550868197647],[2.330066748119493,6.396478056532089],[2.330053179752795,6.396482108678501],[2.330101717206107,6.396357363841148],[2.33008819182705,6.396328405209261],[2.330107167161574,6.396338378407413],[2.330113527208759,6.396314872127192],[2.330141127221052,6.39629817657198],[2.330132552589849,6.396286408114881],[2.330162845783512,6.396284638774349],[2.330187287554387,6.396262964865556],[2.330204004733481,6.396271126304922],[2.330214875787653,6.396255313355285],[2.330210332396212,6.396272491158914],[2.330255546723415,6.396269384643414],[2.330256880660154,6.396286570104537],[2.33031389732098,6.396246850496739],[2.330293555671944,6.396244562981414],[2.330297660496772,6.396216983930673],[2.330309413972131,6.396217903648372],[2.330302206827808,6.396197545113467],[2.330331575211745,6.396211601671465],[2.330343816104316,6.396185389828102],[2.330347842644342,6.396217953707357],[2.330357804780492,6.396205757196167],[2.330335277373728,6.39614603702237],[2.330324421040632,6.396150544913109],[2.330331688810385,6.396124326591668],[2.330345251280147,6.396124796461516],[2.330333048059161,6.396122067345986],[2.330333533121969,6.396096744595619],[2.330313160282591,6.39611842381339],[2.330300977074923,6.396100319812668],[2.330299604287903,6.396112979715394],[2.330292388315694,6.396099404217716],[2.330268416318489,6.396107512647458],[2.330280178620745,6.396101649328328],[2.330269787340314,6.396096209352337],[2.330256658725222,6.39610975834645],[2.330263910015441,6.396096201695696],[2.330248545614343,6.396090755240562],[2.330243163363867,6.396057737391678],[2.330277544885997,6.396041050661877],[2.330291570715896,6.396042022442709],[2.330270788080676,6.396022049323188],[2.330253144924269,6.396030618200502],[2.33027984836504,6.396008042825351],[2.330269910954131,6.396001246831045],[2.330284425890803,6.39596463727632],[2.330260921895028,6.395960536828301],[2.330269919194985,6.395994915996279],[2.330252740502976,6.395993989210533],[2.330258662563338,6.395959629478503],[2.330213914493605,6.395951883726676],[2.330232451255348,6.395951455673096],[2.330220256869322,6.395941943518166],[2.330228414127131,6.395927031438232],[2.3302021822174,6.395934684718231],[2.330204389155797,6.395975838088787],[2.330182628809731,6.396021482265536],[2.330192109996901,6.396031443089741],[2.3301744809684,6.396029159104814],[2.33016904756925,6.396037288059781],[2.330202636673909,6.395932876497334],[2.330184056937575,6.395966315330661],[2.330184567320912,6.395921547874545],[2.330194053216025,6.395927891078744],[2.330207656298994,6.395897158980627],[2.330199984109274,6.395886748310457],[2.330202674938379,6.395903483336236],[2.330185943053217,6.395906626959892],[2.330195911661644,6.395889456224202],[2.330182804832526,6.395886273725237],[2.330191873357995,6.395865936394182],[2.330199081083197,6.395885842727473],[2.330202280527389,6.395859166904282],[2.330224436453991,6.395856934752763],[2.330219934274206,6.395842458383469],[2.330179700756502,6.395839692746882],[2.33022401496254,6.395833419634729],[2.330180620854645,6.395827484458029],[2.330219497477727,6.395830700529961],[2.330185608690264,6.395816185875304],[2.330230367343437,6.395815791983673],[2.330210025711961,6.395813504466821],[2.330212825399301,6.395804445436352],[2.33022314548995,6.395806738510317],[2.330232204593827,6.395793636417912],[2.330203758099216,6.395766014960353],[2.330208746522278,6.395754264174776],[2.330188396651849,6.395758307492047],[2.330195204666364,6.395737967215529],[2.330181183041483,6.39574292318353],[2.330181661633922,6.39572257466096],[2.3301308790548316,6.39576084846176],[2.330123254574961,6.395788520236153],[2.330139972326918,6.395796229473561],[2.330129108346645,6.395806615992983],[2.330160293352233,6.395814344079758],[2.330149832609508,6.395862263994063],[2.330144914242529,6.39582020268433],[2.330127273446717,6.395826962748004],[2.330112862124999,6.395783984662703],[2.330102450834917,6.395793919568147],[2.330113743366973,6.395801621737281],[2.330086600782907,6.395814248060915],[2.330126007807666,6.395757321799875],[2.330106081778146,6.395783071421529],[2.330030994635722,6.395812366788125],[2.330035045885833,6.39582593816443],[2.330055848450022,6.395821443240314],[2.330041782660443,6.39586031438898],[2.330024208989277,6.39581552336802],[2.330004268820071,6.395852125843969],[2.329975787003541,6.395851636522325],[2.329984861424732,6.395826777171089],[2.329943252761566,6.395838480227255],[2.329978949948618,6.395852997254132],[2.329957659947397,6.395884623733094],[2.329905252076044,6.395856971030784],[2.329900260111445,6.395871435027248],[2.329847798057882,6.3958853849446],[2.329847780388073,6.395898951017975],[2.329866781617053,6.395889027315338],[2.329858607858475,6.395916601057029],[2.32988344694956,6.395936982578935],[2.3298772364119644,6.395950863694487],[2.329878463228965,6.395945115740727],[2.329849103120503,6.395924728325346],[2.329855282350826,6.396040048199319],[2.329741807150302,6.396038091455438],[2.329749910226381,6.396064782008699],[2.329739052713022,6.396070194291598],[2.329734573521291,6.396038082024528],[2.329658620417339,6.396037982993813],[2.329658599796242,6.396053810078709],[2.329649126279428,6.396037970614184],[2.329634643702627,6.39604970901266],[2.329640951917155,6.396065996553216],[2.329622859005927,6.396072756008423],[2.329620179979857,6.396046976933155],[2.329608885683668,6.396040631360722],[2.329602537992494,6.396054641382071],[2.329600299284761,6.396037906944756],[2.329593949825709,6.396053273573239],[2.3295870899339852,6.396049602652773]]],[[[2.330370461282759,6.396207582495236],[2.330426573722758,6.396167861695216],[2.330427043480034,6.396154296209205],[2.330403539473935,6.396150195766714],[2.33043792158697,6.39613305682385],[2.330454636412949,6.396143027065071],[2.330419907541313,6.39607922117358],[2.330416235405759,6.39612172349741],[2.330383242557342,6.396113540865934],[2.330374633198291,6.396128452359498],[2.330372397996338,6.396109004707993],[2.33035656913156,6.396113053919326],[2.330368751753018,6.396131610121447],[2.33034385318508,6.396156901071416],[2.330357870111998,6.396155562719977],[2.330370461282759,6.396207582495236]]],[[[2.330255118660119,6.395953229415687],[2.33026227937768,6.395959634190228],[2.33027043957781,6.395942461097119],[2.330281281191243,6.395949258269206],[2.330269538906018,6.3959397467043],[2.330290864796918,6.395880535859021],[2.330260136595386,6.395869190748645],[2.330249725305941,6.395879125657155],[2.330228520085666,6.39584563499159],[2.330213503599165,6.395920228964132],[2.330269551267183,6.395930250452131],[2.330247848616443,6.395931578789289],[2.33026727663125,6.39594110036697],[2.330255118660119,6.395953229415687]]],[[[2.330406822480691,6.396059307187394],[2.33039057977027,6.396033962649041],[2.330392360516881,6.39605521852168],[2.330381079745624,6.396038472307868],[2.330381508305939,6.396056560996444],[2.330357999007761,6.396056530374771],[2.330354934938249,6.395979199626617],[2.330341270649398,6.39605696078811],[2.330406822480691,6.396059307187394]]],[[[2.32949141944846,6.396325818374241],[2.329525384854701,6.396281546762723],[2.329485571000115,6.396303652790592],[2.32949141944846,6.396325818374241]]],[[[2.329594353167723,6.396437646806089],[2.329593925814767,6.396418653715154],[2.329604306486149,6.396432233348122],[2.329599804910295,6.396417304772599],[2.329616087658079,6.396411899568545],[2.329611607884139,6.39638023950373],[2.329611135158369,6.396396065998688],[2.329588980976204,6.396396941513785],[2.329594353167723,6.396437646806089]]],[[[2.330307348292948,6.396068221681377],[2.33035390713675,6.396074160971864],[2.330320926653175,6.396056482084568],[2.330307348292948,6.396068221681377]]],[[[2.329805898688635,6.396467315851164],[2.329833474566469,6.396469160614283],[2.329815873212528,6.396445623101343],[2.329805898688635,6.396467315851164]]],[[[2.329791383701404,6.396503925386632],[2.32979000383064,6.396522011715531],[2.329811276788536,6.396503499118643],[2.329791383701404,6.396503925386632]]],[[[2.329525644249167,6.396429417539722],[2.329562298701433,6.396403237560669],[2.329516178981657,6.396407247238999],[2.329533350611677,6.39641360047954],[2.329525644249167,6.396429417539722]]],[[[2.330266498393606,6.395844327857315],[2.330257476373141,6.395828941193754],[2.330232159856561,6.395828003806621],[2.330266498393606,6.395844327857315]]],[[[2.330337599684921,6.396098558705778],[2.3303482571872407,6.3961123011409375],[2.330355251082592,6.396083658990827],[2.330337599684921,6.396098558705778]]],[[[2.330289450808312,6.395924849935922],[2.330293572109867,6.395884609214989],[2.330277709700661,6.395914433966268],[2.330287664179796,6.395908116088179],[2.330289450808312,6.395924849935922]]],[[]],[[]],[[[2.330019234556954,6.396163713370697],[2.330021080652126,6.396134774770199],[2.330010681130131,6.396135665623591],[2.330019234556954,6.396163713370697]]],[[[2.330238974345674,6.395802689302171],[2.330234884828196,6.395818511088339],[2.330254768472115,6.395825320040132],[2.330238974345674,6.395802689302171]]],[[[2.33012665767304,6.395952674446106],[2.330122157850564,6.395936389266327],[2.330106329578844,6.39593998626786],[2.33012665767304,6.395952674446106]]],[[]],[[[2.330088340891326,6.39586670590375],[2.330096919048085,6.395875761146126],[2.33010327791027,6.395853159270003],[2.330088340891326,6.39586670590375]]],[[]],[[]],[[[2.330151954389395,6.39735770283617],[2.330168709287786,6.397336923323187],[2.330155602422962,6.397333740819876],[2.330151954389395,6.39735770283617]]],[[[2.329876864263341,6.396131421380593],[2.329890427320601,6.396131439059971],[2.329879599256299,6.396114241223597],[2.329876864263341,6.396131421380593]]],[[]],[[[2.329954915536611,6.395909039130348],[2.329970760885629,6.395892328262224],[2.329951315212156,6.39589637274775],[2.329954915536611,6.395909039130348]]],[[]],[[[2.330001386029222,6.395982808819737],[2.330016782221885,6.395963836348826],[2.330003200913896,6.395977836949469],[2.329995527549857,6.395968330681503],[2.330001386029222,6.395982808819737]]],[[]],[[]],[[]],[[[2.329520257919303,6.396399565105023],[2.329539256226281,6.396391902429316],[2.329525704360264,6.396383292894217],[2.329520257919303,6.396399565105023]]],[[]],[[]],[[]],[[]],[[]],[[[2.329626480703958,6.396415982950377],[2.32963821650421,6.396430468756277],[2.329635535120459,6.396406498490837],[2.329626480703958,6.396415982950377]]],[[]],[[]],[[]],[[]],[[]],[[]],[[]],[[]],[[]],[[]],[[]],[[[2.329852932632405,6.396455619884497],[2.329863340996345,6.39644794599845],[2.329845266333736,6.396440687184775],[2.329852932632405,6.396455619884497]]],[[]],[[]],[[]],[[]],[[[2.330288002679388,6.395995391756863],[2.330280784942963,6.395983172866621],[2.330276243322893,6.395998994064041],[2.330288002679388,6.395995391756863]]],[[]],[[]],[[]],[[]],[[]],[[]],[[]],[[]],[[]],[[]],[[]],[[]],[[]],[[]],[[]],[[]],[[]],[[]],[[]],[[]],[[]],[[]],[[]],[[]],[[]],[[]],[[]],[[]],[[]],[[]],[[]],[[]],[[]],[[]],[[]],[[]],[[]],[[]],[[]],[[]],[[]],[[]],[[]],[[]],[[]],[[]],[[]],[[]],[[]],[[]],[[]],[[]],[[]],[[]],[[]],[[]],[[]],[[]],[[]],[[]],[[]],[[]],[[]],[[]],[[]],[[]],[[]],[[]],[[]],[[]],[[]],[[]],[[]],[[]],[[]],[[]],[[]],[[]],[[]],[[]],[[]],[[]],[[]],[[]],[[]],[[]],[[]],[[]],[[]],[[]],[[]],[[]],[[]],[[]],[[]]]}}]}