{"type":"FeatureCollection","name":"agrivision_demo_mission_02_3_zones","agrivision_metadata":{"type":"simulation_finale","date":"2026-08-20","parcelle":"Suivi J+7 — démonstration","culture":"Maïs","avertissement":"Données simulées pour démontrer la mise à jour et l’historique. Ne pas présenter comme une acquisition réelle."},"features":[{"type":"Feature","properties":{"id":1,"nom":"Zone 1 — Nord","surface_ha":0.174,"vari":0.38,"risque":"eleve","causes":["Stress hydrique encore important — à confirmer au sol"],"recommandations":["Visiter cette zone sous 24 heures","Prendre de la terre à 5 à 10 cm de profondeur et vérifier son humidité","Observer si les feuilles sont molles ou flétries","Maintenir un paillage avec des résidus sains","Irriguer seulement si le manque d’eau est confirmé","Contrôler de nouveau au sol sous 72 heures"],"priorite":"haute","delai":"24 h","confiance":"moyenne","verification":"Inspection prioritaire du sol et des feuilles"},"geometry":{"type":"Polygon","coordinates":[[[2.32905,6.39750],[2.33024,6.39750],[2.33024,6.39765],[2.32905,6.39765],[2.32905,6.39750]]]}},{"type":"Feature","properties":{"id":2,"nom":"Zone 2 — Centre et Ouest","surface_ha":2.44,"vari":0.57,"risque":"modere","causes":["Vigueur moyenne — amélioration possible mais contrôle encore nécessaire"],"recommandations":["Observer la couleur des feuilles et comparer avec la Zone 3","Maintenir une couverture du sol avec des résidus sains","Appliquer du compost bien décomposé seulement si l’état du sol le justifie","Éviter l’épandage uniforme d’engrais","Prévoir une rotation avec une légumineuse adaptée comme le niébé, le soja, l’arachide ou le mucuna","Effectuer un contrôle manuel sous 72 heures"],"priorite":"moyenne","delai":"72 h","confiance":"moyenne","verification":"Observer les feuilles et vérifier le sol avant tout apport"},"geometry":{"type":"Polygon","coordinates":[[[2.32905,6.39620],[2.33024,6.39620],[2.33024,6.39750],[2.32905,6.39750],[2.32905,6.39620]]]}},{"type":"Feature","properties":{"id":3,"nom":"Zone 3 — Sud","surface_ha":0.872,"vari":0.73,"risque":"faible","causes":[],"recommandations":["Maintenir les pratiques actuelles","Garder le sol couvert avec des résidus sains","Éviter l’eau, l’engrais et les traitements inutiles","Utiliser cette zone comme référence pour comparer les autres zones","Surveiller lors de la prochaine visite et du prochain vol"],"priorite":"faible","delai":"prochaine visite","confiance":"élevée","verification":"Surveillance simple et comparaison temporelle"},"geometry":{"type":"Polygon","coordinates":[[[2.32905,6.39572],[2.33024,6.39572],[2.33024,6.39620],[2.32905,6.39620],[2.32905,6.39572]]]}}]}